[{"OBJECT_NAME":"STARLINK-1497","OBJECT_ID":"2020-038BD","EPOCH":"2025-12-13T08:00:03.000384","MEAN_MOTION":15.67379641,"ECCENTRICITY":0.00045495,"INCLINATION":53.034,"RA_OF_ASC_NODE":153.04,"ARG_OF_PERICENTER":122.4977,"MEAN_ANOMALY":193.7854,"EPHEMERIS_TYPE":0,"CLASSIFICATION_TYPE":"U","NORAD_CAT_ID":45781,"ELEMENT_SET_NO":999,"REV_AT_EPOCH":591,"BSTAR":0.0013686908,"MEAN_MOTION_DOT":0.00153013,"MEAN_MOTION_DDOT":0},{"OBJECT_NAME":"STARLINK-1510","OBJECT_ID":"2020-038BG","EPOCH":"2025-12-13T08:00:03.000384","MEAN_MOTION":15.91972791,"ECCENTRICITY":0.00043513,"INCLINATION":53.0216,"RA_OF_ASC_NODE":123.179,"ARG_OF_PERICENTER":301.6365,"MEAN_ANOMALY":322.5917,"EPHEMERIS_TYPE":0,"CLASSIFICATION_TYPE":"U","NORAD_CAT_ID":45784,"ELEMENT_SET_NO":999,"REV_AT_EPOCH":601,"BSTAR":0.0014303114,"MEAN_MOTION_DOT":0.00482231,"MEAN_MOTION_DDOT":0.00010123952},{"OBJECT_NAME":"STARLINK-1513","OBJECT_ID":"2020-038BJ","EPOCH":"2025-12-12T22:23:59.896032","MEAN_MOTION":15.06385092,"ECCENTRICITY":0.00015885,"INCLINATION":53.0537,"RA_OF_ASC_NODE":226.0838,"ARG_OF_PERICENTER":96.2123,"MEAN_ANOMALY":263.9047,"EPHEMERIS_TYPE":0,"CLASSIFICATION_TYPE":"U","NORAD_CAT_ID":45786,"ELEMENT_SET_NO":999,"REV_AT_EPOCH":30368,"BSTAR":-9.6233214e-5,"MEAN_MOTION_DOT":-1.714e-5,"MEAN_MOTION_DDOT":0},{"OBJECT_NAME":"STARLINK-1522","OBJECT_ID":"2020-055A","EPOCH":"2025-12-12T20:20:36.321504","MEAN_MOTION":15.06402941,"ECCENTRICITY":0.00015036,"INCLINATION":53.0549,"RA_OF_ASC_NODE":156.4663,"ARG_OF_PERICENTER":96.3105,"MEAN_ANOMALY":263.8055,"EPHEMERIS_TYPE":0,"CLASSIFICATION_TYPE":"U","NORAD_CAT_ID":46027,"ELEMENT_SET_NO":999,"REV_AT_EPOCH":29579,"BSTAR":0.00010202421,"MEAN_MOTION_DOT":1.239e-5,"MEAN_MOTION_DDOT":0},{"OBJECT_NAME":"STARLINK-1523","OBJECT_ID":"2020-055B","EPOCH":"2025-12-13T04:39:30.097440","MEAN_MOTION":15.06397193,"ECCENTRICITY":7.85e-5,"INCLINATION":53.0545,"RA_OF_ASC_NODE":154.913,"ARG_OF_PERICENTER":124.5938,"MEAN_ANOMALY":235.5125,"EPHEMERIS_TYPE":0,"CLASSIFICATION_TYPE":"U","NORAD_CAT_ID":46028,"ELEMENT_SET_NO":999,"REV_AT_EPOCH":29586,"BSTAR":0.00018246405,"MEAN_MOTION_DOT":2.437e-5,"MEAN_MOTION_DDOT":0},{"OBJECT_NAME":"STARLINK-1526","OBJECT_ID":"2020-055C","EPOCH":"2025-12-13T04:28:52.957056","MEAN_MOTION":15.06431493,"ECCENTRICITY":0.00013585,"INCLINATION":53.0542,"RA_OF_ASC_NODE":154.9435,"ARG_OF_PERICENTER":108.4721,"MEAN_ANOMALY":251.6416,"EPHEMERIS_TYPE":0,"CLASSIFICATION_TYPE":"U","NORAD_CAT_ID":46029,"ELEMENT_SET_NO":999,"REV_AT_EPOCH":29585,"BSTAR":-0.00070139071,"MEAN_MOTION_DOT":-0.00010722,"MEAN_MOTION_DDOT":0},{"OBJECT_NAME":"STARLINK-1555","OBJECT_ID":"2020-055F","EPOCH":"2025-12-12T21:45:31.481568","MEAN_MOTION":15.06391849,"ECCENTRICITY":0.00019832,"INCLINATION":53.0534,"RA_OF_ASC_NODE":156.2009,"ARG_OF_PERICENTER":97.8081,"MEAN_ANOMALY":262.3133,"EPHEMERIS_TYPE":0,"CLASSIFICATION_TYPE":"U","NORAD_CAT_ID":46032,"ELEMENT_SET_NO":999,"REV_AT_EPOCH":29581,"BSTAR":-2.755833e-5,"MEAN_MOTION_DOT":-6.92e-6,"MEAN_MOTION_DDOT":0},{"OBJECT_NAME":"STARLINK-1556","OBJECT_ID":"2020-055G","EPOCH":"2025-12-12T21:18:58.020192","MEAN_MOTION":15.063974,"ECCENTRICITY":7.424e-5,"INCLINATION":53.0533,"RA_OF_ASC_NODE":156.284,"ARG_OF_PERICENTER":58.8207,"MEAN_ANOMALY":301.2855,"EPHEMERIS_TYPE":0,"CLASSIFICATION_TYPE":"U","NORAD_CAT_ID":46033,"ELEMENT_SET_NO":999,"REV_AT_EPOCH":29578,"BSTAR":-0.00021694842,"MEAN_MOTION_DOT":-3.511e-5,"MEAN_MOTION_DDOT":0},{"OBJECT_NAME":"STARLINK-1557","OBJECT_ID":"2020-055H","EPOCH":"2025-12-12T18:13:12.737280","MEAN_MOTION":15.06394651,"ECCENTRICITY":0.00011856,"INCLINATION":53.0526,"RA_OF_ASC_NODE":156.8621,"ARG_OF_PERICENTER":83.4436,"MEAN_ANOMALY":276.6688,"EPHEMERIS_TYPE":0,"CLASSIFICATION_TYPE":"U","NORAD_CAT_ID":46034,"ELEMENT_SET_NO":999,"REV_AT_EPOCH":29576,"BSTAR":4.9446246e-5,"MEAN_MOTION_DOT":4.55e-6,"MEAN_MOTION_DDOT":0},{"OBJECT_NAME":"STARLINK-1558","OBJECT_ID":"2020-055J","EPOCH":"2025-12-13T03:57:03.853152","MEAN_MOTION":15.06398016,"ECCENTRICITY":0.00012384,"INCLINATION":53.0546,"RA_OF_ASC_NODE":155.0442,"ARG_OF_PERICENTER":95.8537,"MEAN_ANOMALY":264.2593,"EPHEMERIS_TYPE":0,"CLASSIFICATION_TYPE":"U","NORAD_CAT_ID":46035,"ELEMENT_SET_NO":999,"REV_AT_EPOCH":29585,"BSTAR":-7.7884475e-5,"MEAN_MOTION_DOT":-1.441e-5,"MEAN_MOTION_DDOT":0},{"OBJECT_NAME":"STARLINK-1560","OBJECT_ID":"2020-055K","EPOCH":"2025-12-12T21:13:40.998720","MEAN_MOTION":15.0638245,"ECCENTRICITY":0.00016005,"INCLINATION":53.0527,"RA_OF_ASC_NODE":156.3042,"ARG_OF_PERICENTER":87.0754,"MEAN_ANOMALY":273.0418,"EPHEMERIS_TYPE":0,"CLASSIFICATION_TYPE":"U","NORAD_CAT_ID":46036,"ELEMENT_SET_NO":999,"REV_AT_EPOCH":29581,"BSTAR":0.00011851285,"MEAN_MOTION_DOT":1.483e-5,"MEAN_MOTION_DDOT":0},{"OBJECT_NAME":"STARLINK-1567","OBJECT_ID":"2020-055M","EPOCH":"2025-12-13T03:51:42.647328","MEAN_MOTION":15.06450001,"ECCENTRICITY":0.0001434,"INCLINATION":53.0543,"RA_OF_ASC_NODE":155.0605,"ARG_OF_PERICENTER":97.6781,"MEAN_ANOMALY":262.4371,"EPHEMERIS_TYPE":0,"CLASSIFICATION_TYPE":"U","NORAD_CAT_ID":46038,"ELEMENT_SET_NO":999,"REV_AT_EPOCH":29584,"BSTAR":0.00085705491,"MEAN_MOTION_DOT":0.00012524,"MEAN_MOTION_DDOT":0},{"OBJECT_NAME":"STARLINK-1569","OBJECT_ID":"2020-055N","EPOCH":"2025-12-13T04:02:23.094240","MEAN_MOTION":15.06385505,"ECCENTRICITY":0.00012649,"INCLINATION":53.0545,"RA_OF_ASC_NODE":155.0281,"ARG_OF_PERICENTER":84.4722,"MEAN_ANOMALY":275.6412,"EPHEMERIS_TYPE":0,"CLASSIFICATION_TYPE":"U","NORAD_CAT_ID":46039,"ELEMENT_SET_NO":999,"REV_AT_EPOCH":29584,"BSTAR":-6.9089854e-5,"MEAN_MOTION_DOT":-1.31e-5,"MEAN_MOTION_DDOT":0},{"OBJECT_NAME":"STARLINK-1582","OBJECT_ID":"2020-055S","EPOCH":"2025-12-12T21:50:46.274784","MEAN_MOTION":15.06433392,"ECCENTRICITY":0.00015427,"INCLINATION":53.0543,"RA_OF_ASC_NODE":156.1863,"ARG_OF_PERICENTER":107.2875,"MEAN_ANOMALY":252.8283,"EPHEMERIS_TYPE":0,"CLASSIFICATION_TYPE":"U","NORAD_CAT_ID":46043,"ELEMENT_SET_NO":999,"REV_AT_EPOCH":29580,"BSTAR":0.0003007881,"MEAN_MOTION_DOT":4.205e-5,"MEAN_MOTION_DDOT":0},{"OBJECT_NAME":"STARLINK-1591","OBJECT_ID":"2020-055U","EPOCH":"2025-12-13T04:50:07.317312","MEAN_MOTION":15.06408705,"ECCENTRICITY":0.00012672,"INCLINATION":53.0536,"RA_OF_ASC_NODE":154.8788,"ARG_OF_PERICENTER":88.7071,"MEAN_ANOMALY":271.4063,"EPHEMERIS_TYPE":0,"CLASSIFICATION_TYPE":"U","NORAD_CAT_ID":46045,"ELEMENT_SET_NO":999,"REV_AT_EPOCH":29583,"BSTAR":6.0492805e-5,"MEAN_MOTION_DOT":6.2e-6,"MEAN_MOTION_DDOT":0},{"OBJECT_NAME":"STARLINK-1524","OBJECT_ID":"2020-055W","EPOCH":"2025-12-12T18:09:14.020992","MEAN_MOTION":15.06392215,"ECCENTRICITY":0.00013768,"INCLINATION":53.0534,"RA_OF_ASC_NODE":146.877,"ARG_OF_PERICENTER":91.7861,"MEAN_ANOMALY":268.3286,"EPHEMERIS_TYPE":0,"CLASSIFICATION_TYPE":"U","NORAD_CAT_ID":46047,"ELEMENT_SET_NO":999,"REV_AT_EPOCH":29592,"BSTAR":-2.222249e-5,"MEAN_MOTION_DOT":-6.12e-6,"MEAN_MOTION_DDOT":0}]
