STARLINK-1497           
1 45781U 20038BD  25347.33336806  .00153013  00000+0  13687-2 0  9990
2 45781  53.0340 153.0400 0004549 122.4977 193.7854 15.67379641  5910
STARLINK-1510           
1 45784U 20038BG  25347.33336806  .00482231  10124-3  14303-2 0  9998
2 45784  53.0216 123.1790 0004351 301.6365 322.5917 15.91972791  6014
STARLINK-1513           
1 45786U 20038BJ  25346.93333213 -.00001714  00000+0 -96233-4 0  9991
2 45786  53.0537 226.0838 0001588  96.2123 263.9047 15.06385092303689
STARLINK-1522           
1 46027U 20055A   25346.84764261  .00001239  00000+0  10202-3 0  9991
2 46027  53.0549 156.4663 0001503  96.3105 263.8055 15.06402941295794
STARLINK-1523           
1 46028U 20055B   25347.19409835  .00002437  00000+0  18246-3 0  9991
2 46028  53.0545 154.9130 0000785 124.5938 235.5125 15.06397193295866
STARLINK-1526           
1 46029U 20055C   25347.18672404 -.00010722  00000+0 -70139-3 0  9992
2 46029  53.0542 154.9435 0001358 108.4721 251.6416 15.06431493295853
STARLINK-1555           
1 46032U 20055F   25346.90661437 -.00000692  00000+0 -27558-4 0  9992
2 46032  53.0534 156.2009 0001983  97.8081 262.3133 15.06391849295815
STARLINK-1556           
1 46033U 20055G   25346.88817153 -.00003511  00000+0 -21695-3 0  9996
2 46033  53.0533 156.2840 0000742  58.8207 301.2855 15.06397400295786
STARLINK-1557           
1 46034U 20055H   25346.75917520  .00000455  00000+0  49446-4 0  9999
2 46034  53.0526 156.8621 0001185  83.4436 276.6688 15.06394651295764
STARLINK-1558           
1 46035U 20055J   25347.16462793 -.00001441  00000+0 -77884-4 0  9998
2 46035  53.0546 155.0442 0001238  95.8537 264.2593 15.06398016295854
STARLINK-1560           
1 46036U 20055K   25346.88450230  .00001483  00000+0  11851-3 0  9995
2 46036  53.0527 156.3042 0001600  87.0754 273.0418 15.06382450295816
STARLINK-1567           
1 46038U 20055M   25347.16091027  .00012524  00000+0  85705-3 0  9991
2 46038  53.0543 155.0605 0001434  97.6781 262.4371 15.06450001295840
STARLINK-1569           
1 46039U 20055N   25347.16832285 -.00001310  00000+0 -69090-4 0  9994
2 46039  53.0545 155.0281 0001264  84.4722 275.6412 15.06385505295841
STARLINK-1582           
1 46043U 20055S   25346.91025781  .00004205  00000+0  30079-3 0  9994
2 46043  53.0543 156.1863 0001542 107.2875 252.8283 15.06433392295801
STARLINK-1591           
1 46045U 20055U   25347.20147358  .00000620  00000+0  60493-4 0  9995
2 46045  53.0536 154.8788 0001267  88.7071 271.4063 15.06408705295837
STARLINK-1524           
1 46047U 20055W   25346.75641228 -.00000612  00000+0 -22222-4 0  9992
2 46047  53.0534 146.8770 0001376  91.7861 268.3286 15.06392215295921
